<?xml version="1.0" encoding="UTF-8"?>
<kml xmlns="http://www.opengis.net/kml/2.2" xmlns:gx="http://www.google.com/kml/ext/2.2" xmlns:kml="http://www.opengis.net/kml/2.2" xmlns:atom="http://www.w3.org/2005/Atom">
<Document>
	<name>N 4392 - Jabuticaba (10 fustes).kml</name>
	<Style id="multi_fuste">
		<IconStyle>
			<color>ff0000ff</color>
			<scale>1.2</scale>
			<Icon>
				<href>http://maps.google.com/mapfiles/kml/shapes/placemark_circle.png</href>
			</Icon>
		</IconStyle>
	</Style>
	<Folder>
		<name>N 4392 - Jabuticaba (10 fustes)</name>
		<open>1</open>
		<Placemark>
			<name>Fuste 1 - N 4392 - Jabuticaba</name>
			<description><![CDATA[<h3>Fuste 1 - N 4392 - Jabuticaba</h3><table border="1" cellpadding="4"><tr><td><b>Indivíduo (N)</b></td><td>4392</td></tr><tr><td><b>Fuste</b></td><td>1 de 10</td></tr><tr><td><b>Nome Científico</b></td><td><i>Plinia peruviana (Poir.) Govaerts</i></td></tr><tr><td><b>Nome Comum</b></td><td>Jabuticaba</td></tr><tr><td><b>Família</b></td><td>Myrtaceae</td></tr><tr><td><b>Altura (m)</b></td><td>2.5</td></tr><tr><td><b>CAP (cm)</b></td><td>25.0</td></tr><tr><td><b>Copa D1 (m)</b></td><td>3.0</td></tr><tr><td><b>Copa D2 (m)</b></td><td>3.0</td></tr><tr><td><b>Município</b></td><td>Alvorada de Minas</td></tr><tr><td><b>Localidade</b></td><td>Área rural</td></tr><tr><td><b>Status</b></td><td>Não ameaçada</td></tr><tr><td><b>Origem</b></td><td>Nativa</td></tr><tr><td><b>Data</b></td><td>2025-11-04 00:00:00</td></tr><tr><td><b>Responsável</b></td><td>Tiago Vital</td></tr><tr><td><b>Ident. Campo</b></td><td>Márcio Edinei</td></tr><tr><td><b>N GPS</b></td><td>16</td></tr></table><br/>Coordenadas: -18.708393, -43.353101]]></description>
			<styleUrl>#multi_fuste</styleUrl>
			<Point>
				<coordinates>-43.353101,-18.708393,0</coordinates>
			</Point>
		</Placemark>
		<Placemark>
			<name>Fuste 2 - N 4392 - Jabuticaba</name>
			<description><![CDATA[<h3>Fuste 2 - N 4392 - Jabuticaba</h3><table border="1" cellpadding="4"><tr><td><b>Indivíduo (N)</b></td><td>4392</td></tr><tr><td><b>Fuste</b></td><td>2 de 10</td></tr><tr><td><b>Nome Científico</b></td><td><i>Plinia peruviana (Poir.) Govaerts</i></td></tr><tr><td><b>Nome Comum</b></td><td>Jabuticaba</td></tr><tr><td><b>Família</b></td><td>Myrtaceae</td></tr><tr><td><b>Altura (m)</b></td><td>2.5</td></tr><tr><td><b>CAP (cm)</b></td><td>28.0</td></tr><tr><td><b>Copa D1 (m)</b></td><td></td></tr><tr><td><b>Copa D2 (m)</b></td><td></td></tr><tr><td><b>Município</b></td><td>Alvorada de Minas</td></tr><tr><td><b>Localidade</b></td><td>Área rural</td></tr><tr><td><b>Status</b></td><td>Não ameaçada</td></tr><tr><td><b>Origem</b></td><td>Nativa</td></tr><tr><td><b>Data</b></td><td>2025-11-04 00:00:00</td></tr><tr><td><b>Responsável</b></td><td>Tiago Vital</td></tr><tr><td><b>Ident. Campo</b></td><td>Márcio Edinei</td></tr><tr><td><b>N GPS</b></td><td>16</td></tr></table><br/>Coordenadas: -18.708393, -43.353101]]></description>
			<styleUrl>#multi_fuste</styleUrl>
			<Point>
				<coordinates>-43.353101,-18.708393,0</coordinates>
			</Point>
		</Placemark>
		<Placemark>
			<name>Fuste 3 - N 4392 - Jabuticaba</name>
			<description><![CDATA[<h3>Fuste 3 - N 4392 - Jabuticaba</h3><table border="1" cellpadding="4"><tr><td><b>Indivíduo (N)</b></td><td>4392</td></tr><tr><td><b>Fuste</b></td><td>3 de 10</td></tr><tr><td><b>Nome Científico</b></td><td><i>Plinia peruviana (Poir.) Govaerts</i></td></tr><tr><td><b>Nome Comum</b></td><td>Jabuticaba</td></tr><tr><td><b>Família</b></td><td>Myrtaceae</td></tr><tr><td><b>Altura (m)</b></td><td>2.5</td></tr><tr><td><b>CAP (cm)</b></td><td>40.0</td></tr><tr><td><b>Copa D1 (m)</b></td><td></td></tr><tr><td><b>Copa D2 (m)</b></td><td></td></tr><tr><td><b>Município</b></td><td>Alvorada de Minas</td></tr><tr><td><b>Localidade</b></td><td>Área rural</td></tr><tr><td><b>Status</b></td><td>Não ameaçada</td></tr><tr><td><b>Origem</b></td><td>Nativa</td></tr><tr><td><b>Data</b></td><td>2025-11-04 00:00:00</td></tr><tr><td><b>Responsável</b></td><td>Tiago Vital</td></tr><tr><td><b>Ident. Campo</b></td><td>Márcio Edinei</td></tr><tr><td><b>N GPS</b></td><td>16</td></tr></table><br/>Coordenadas: -18.708393, -43.353101]]></description>
			<styleUrl>#multi_fuste</styleUrl>
			<Point>
				<coordinates>-43.353101,-18.708393,0</coordinates>
			</Point>
		</Placemark>
		<Placemark>
			<name>Fuste 4 - N 4392 - Jabuticaba</name>
			<description><![CDATA[<h3>Fuste 4 - N 4392 - Jabuticaba</h3><table border="1" cellpadding="4"><tr><td><b>Indivíduo (N)</b></td><td>4392</td></tr><tr><td><b>Fuste</b></td><td>4 de 10</td></tr><tr><td><b>Nome Científico</b></td><td><i>Plinia peruviana (Poir.) Govaerts</i></td></tr><tr><td><b>Nome Comum</b></td><td>Jabuticaba</td></tr><tr><td><b>Família</b></td><td>Myrtaceae</td></tr><tr><td><b>Altura (m)</b></td><td>2.5</td></tr><tr><td><b>CAP (cm)</b></td><td>38.0</td></tr><tr><td><b>Copa D1 (m)</b></td><td></td></tr><tr><td><b>Copa D2 (m)</b></td><td></td></tr><tr><td><b>Município</b></td><td>Alvorada de Minas</td></tr><tr><td><b>Localidade</b></td><td>Área rural</td></tr><tr><td><b>Status</b></td><td>Não ameaçada</td></tr><tr><td><b>Origem</b></td><td>Nativa</td></tr><tr><td><b>Data</b></td><td>2025-11-04 00:00:00</td></tr><tr><td><b>Responsável</b></td><td>Tiago Vital</td></tr><tr><td><b>Ident. Campo</b></td><td>Márcio Edinei</td></tr><tr><td><b>N GPS</b></td><td>16</td></tr></table><br/>Coordenadas: -18.708393, -43.353101]]></description>
			<styleUrl>#multi_fuste</styleUrl>
			<Point>
				<coordinates>-43.353101,-18.708393,0</coordinates>
			</Point>
		</Placemark>
		<Placemark>
			<name>Fuste 5 - N 4392 - Jabuticaba</name>
			<description><![CDATA[<h3>Fuste 5 - N 4392 - Jabuticaba</h3><table border="1" cellpadding="4"><tr><td><b>Indivíduo (N)</b></td><td>4392</td></tr><tr><td><b>Fuste</b></td><td>5 de 10</td></tr><tr><td><b>Nome Científico</b></td><td><i>Plinia peruviana (Poir.) Govaerts</i></td></tr><tr><td><b>Nome Comum</b></td><td>Jabuticaba</td></tr><tr><td><b>Família</b></td><td>Myrtaceae</td></tr><tr><td><b>Altura (m)</b></td><td>2.5</td></tr><tr><td><b>CAP (cm)</b></td><td>27.0</td></tr><tr><td><b>Copa D1 (m)</b></td><td></td></tr><tr><td><b>Copa D2 (m)</b></td><td></td></tr><tr><td><b>Município</b></td><td>Alvorada de Minas</td></tr><tr><td><b>Localidade</b></td><td>Área rural</td></tr><tr><td><b>Status</b></td><td>Não ameaçada</td></tr><tr><td><b>Origem</b></td><td>Nativa</td></tr><tr><td><b>Data</b></td><td>2025-11-04 00:00:00</td></tr><tr><td><b>Responsável</b></td><td>Tiago Vital</td></tr><tr><td><b>Ident. Campo</b></td><td>Márcio Edinei</td></tr><tr><td><b>N GPS</b></td><td>16</td></tr></table><br/>Coordenadas: -18.708393, -43.353101]]></description>
			<styleUrl>#multi_fuste</styleUrl>
			<Point>
				<coordinates>-43.353101,-18.708393,0</coordinates>
			</Point>
		</Placemark>
		<Placemark>
			<name>Fuste 6 - N 4392 - Jabuticaba</name>
			<description><![CDATA[<h3>Fuste 6 - N 4392 - Jabuticaba</h3><table border="1" cellpadding="4"><tr><td><b>Indivíduo (N)</b></td><td>4392</td></tr><tr><td><b>Fuste</b></td><td>6 de 10</td></tr><tr><td><b>Nome Científico</b></td><td><i>Plinia peruviana (Poir.) Govaerts</i></td></tr><tr><td><b>Nome Comum</b></td><td>Jabuticaba</td></tr><tr><td><b>Família</b></td><td>Myrtaceae</td></tr><tr><td><b>Altura (m)</b></td><td>2.5</td></tr><tr><td><b>CAP (cm)</b></td><td>38.0</td></tr><tr><td><b>Copa D1 (m)</b></td><td></td></tr><tr><td><b>Copa D2 (m)</b></td><td></td></tr><tr><td><b>Município</b></td><td>Alvorada de Minas</td></tr><tr><td><b>Localidade</b></td><td>Área rural</td></tr><tr><td><b>Status</b></td><td>Não ameaçada</td></tr><tr><td><b>Origem</b></td><td>Nativa</td></tr><tr><td><b>Data</b></td><td>2025-11-04 00:00:00</td></tr><tr><td><b>Responsável</b></td><td>Tiago Vital</td></tr><tr><td><b>Ident. Campo</b></td><td>Márcio Edinei</td></tr><tr><td><b>N GPS</b></td><td>16</td></tr></table><br/>Coordenadas: -18.708393, -43.353101]]></description>
			<styleUrl>#multi_fuste</styleUrl>
			<Point>
				<coordinates>-43.353101,-18.708393,0</coordinates>
			</Point>
		</Placemark>
		<Placemark>
			<name>Fuste 7 - N 4392 - Jabuticaba</name>
			<description><![CDATA[<h3>Fuste 7 - N 4392 - Jabuticaba</h3><table border="1" cellpadding="4"><tr><td><b>Indivíduo (N)</b></td><td>4392</td></tr><tr><td><b>Fuste</b></td><td>7 de 10</td></tr><tr><td><b>Nome Científico</b></td><td><i>Plinia peruviana (Poir.) Govaerts</i></td></tr><tr><td><b>Nome Comum</b></td><td>Jabuticaba</td></tr><tr><td><b>Família</b></td><td>Myrtaceae</td></tr><tr><td><b>Altura (m)</b></td><td>2.5</td></tr><tr><td><b>CAP (cm)</b></td><td>45.0</td></tr><tr><td><b>Copa D1 (m)</b></td><td></td></tr><tr><td><b>Copa D2 (m)</b></td><td></td></tr><tr><td><b>Município</b></td><td>Alvorada de Minas</td></tr><tr><td><b>Localidade</b></td><td>Área rural</td></tr><tr><td><b>Status</b></td><td>Não ameaçada</td></tr><tr><td><b>Origem</b></td><td>Nativa</td></tr><tr><td><b>Data</b></td><td>2025-11-04 00:00:00</td></tr><tr><td><b>Responsável</b></td><td>Tiago Vital</td></tr><tr><td><b>Ident. Campo</b></td><td>Márcio Edinei</td></tr><tr><td><b>N GPS</b></td><td>16</td></tr></table><br/>Coordenadas: -18.708393, -43.353101]]></description>
			<styleUrl>#multi_fuste</styleUrl>
			<Point>
				<coordinates>-43.353101,-18.708393,0</coordinates>
			</Point>
		</Placemark>
		<Placemark>
			<name>Fuste 8 - N 4392 - Jabuticaba</name>
			<description><![CDATA[<h3>Fuste 8 - N 4392 - Jabuticaba</h3><table border="1" cellpadding="4"><tr><td><b>Indivíduo (N)</b></td><td>4392</td></tr><tr><td><b>Fuste</b></td><td>8 de 10</td></tr><tr><td><b>Nome Científico</b></td><td><i>Plinia peruviana (Poir.) Govaerts</i></td></tr><tr><td><b>Nome Comum</b></td><td>Jabuticaba</td></tr><tr><td><b>Família</b></td><td>Myrtaceae</td></tr><tr><td><b>Altura (m)</b></td><td>2.5</td></tr><tr><td><b>CAP (cm)</b></td><td>60.0</td></tr><tr><td><b>Copa D1 (m)</b></td><td></td></tr><tr><td><b>Copa D2 (m)</b></td><td></td></tr><tr><td><b>Município</b></td><td>Alvorada de Minas</td></tr><tr><td><b>Localidade</b></td><td>Área rural</td></tr><tr><td><b>Status</b></td><td>Não ameaçada</td></tr><tr><td><b>Origem</b></td><td>Nativa</td></tr><tr><td><b>Data</b></td><td>2025-11-04 00:00:00</td></tr><tr><td><b>Responsável</b></td><td>Tiago Vital</td></tr><tr><td><b>Ident. Campo</b></td><td>Márcio Edinei</td></tr><tr><td><b>N GPS</b></td><td>16</td></tr></table><br/>Coordenadas: -18.708393, -43.353101]]></description>
			<styleUrl>#multi_fuste</styleUrl>
			<Point>
				<coordinates>-43.353101,-18.708393,0</coordinates>
			</Point>
		</Placemark>
		<Placemark>
			<name>Fuste 9 - N 4392 - Jabuticaba</name>
			<description><![CDATA[<h3>Fuste 9 - N 4392 - Jabuticaba</h3><table border="1" cellpadding="4"><tr><td><b>Indivíduo (N)</b></td><td>4392</td></tr><tr><td><b>Fuste</b></td><td>9 de 10</td></tr><tr><td><b>Nome Científico</b></td><td><i>Plinia peruviana (Poir.) Govaerts</i></td></tr><tr><td><b>Nome Comum</b></td><td>Jabuticaba</td></tr><tr><td><b>Família</b></td><td>Myrtaceae</td></tr><tr><td><b>Altura (m)</b></td><td>2.5</td></tr><tr><td><b>CAP (cm)</b></td><td>25.0</td></tr><tr><td><b>Copa D1 (m)</b></td><td></td></tr><tr><td><b>Copa D2 (m)</b></td><td></td></tr><tr><td><b>Município</b></td><td>Alvorada de Minas</td></tr><tr><td><b>Localidade</b></td><td>Área rural</td></tr><tr><td><b>Status</b></td><td>Não ameaçada</td></tr><tr><td><b>Origem</b></td><td>Nativa</td></tr><tr><td><b>Data</b></td><td>2025-11-04 00:00:00</td></tr><tr><td><b>Responsável</b></td><td>Tiago Vital</td></tr><tr><td><b>Ident. Campo</b></td><td>Márcio Edinei</td></tr><tr><td><b>N GPS</b></td><td>16</td></tr></table><br/>Coordenadas: -18.708393, -43.353101]]></description>
			<styleUrl>#multi_fuste</styleUrl>
			<Point>
				<coordinates>-43.353101,-18.708393,0</coordinates>
			</Point>
		</Placemark>
		<Placemark>
			<name>Fuste 10 - N 4392 - Jabuticaba</name>
			<description><![CDATA[<h3>Fuste 10 - N 4392 - Jabuticaba</h3><table border="1" cellpadding="4"><tr><td><b>Indivíduo (N)</b></td><td>4392</td></tr><tr><td><b>Fuste</b></td><td>10 de 10</td></tr><tr><td><b>Nome Científico</b></td><td><i>Plinia peruviana (Poir.) Govaerts</i></td></tr><tr><td><b>Nome Comum</b></td><td>Jabuticaba</td></tr><tr><td><b>Família</b></td><td>Myrtaceae</td></tr><tr><td><b>Altura (m)</b></td><td>2.5</td></tr><tr><td><b>CAP (cm)</b></td><td>28.0</td></tr><tr><td><b>Copa D1 (m)</b></td><td></td></tr><tr><td><b>Copa D2 (m)</b></td><td></td></tr><tr><td><b>Município</b></td><td>Alvorada de Minas</td></tr><tr><td><b>Localidade</b></td><td>Área rural</td></tr><tr><td><b>Status</b></td><td>Não ameaçada</td></tr><tr><td><b>Origem</b></td><td>Nativa</td></tr><tr><td><b>Data</b></td><td>2025-11-04 00:00:00</td></tr><tr><td><b>Responsável</b></td><td>Tiago Vital</td></tr><tr><td><b>Ident. Campo</b></td><td>Márcio Edinei</td></tr><tr><td><b>N GPS</b></td><td>16</td></tr></table><br/>Coordenadas: -18.708393, -43.353101]]></description>
			<styleUrl>#multi_fuste</styleUrl>
			<Point>
				<coordinates>-43.353101,-18.708393,0</coordinates>
			</Point>
		</Placemark>
		<atom:link rel="app" href="https://www.google.com/earth/about/versions/#earth-pro" title="Google Earth Pro 7.3.7.1155"></atom:link>
	</Folder>
</Document>
</kml>
